GSAT0233 (GALILEO 33)   
1 67160U 25302A   25352.14605887 -.00000007  00000+0  00000+0 0  9994
2 67160  54.2406 107.2544 0008423 237.6458 122.2317  1.72906186    28
ARIANE 6 R/B            
1 67161U 25302B   26014.31699228 -.00000032  00000+0  00000+0 0  9990
2 67161  54.2437 106.4249 0005217 261.0325  98.9126  1.72972424   506
GSAT0234 (GALILEO 34)   
1 67162U 25302C   25356.18244914  .00000006  00000+0  00000+0 0  9992
2 67162  54.2447 107.1379 0000312 196.8367 159.4994  1.73130437   127
STARLINK-35755          
1 67163U 25303A   26016.25001157  .00008028  00000+0  19906-3 0  9997
2 67163  42.9987 250.5679 0002269 260.8348  60.0868 15.40728091  5727
STARLINK-36201          
1 67164U 25303B   26016.25001157  .00010476  00000+0  25775-3 0  9999
2 67164  42.9988 250.5362 0001384 270.8802  62.5862 15.40695530  6016
STARLINK-36186          
1 67165U 25303C   26016.25001157  .00011112  00000+0  27290-3 0  9992
2 67165  42.9987 250.4452 0001289 263.3273 107.4523 15.40697031  6019
STARLINK-36174          
1 67166U 25303D   26016.25001157  .00009958  00000+0  24537-3 0  9999
2 67166  42.9988 250.5070 0001508 265.2730  80.6297 15.40696600  5842
STARLINK-36198          
1 67167U 25303E   26016.25001157  .00012219  00000+0  29935-3 0  9991
2 67167  42.9987 250.4156 0001571 269.4602 113.7639 15.40694787  6012
STARLINK-35903          
1 67168U 25303F   26016.25001157  .00012044  00000+0  29517-3 0  9994
2 67168  42.9988 250.4756 0001180 275.3794  82.9694 15.40695544  5978
STARLINK-35839          
1 67169U 25303G   26016.25001157  .00012833  00000+0  31401-3 0  9996
2 67169  42.9988 250.3550 0001788 269.9971 138.1085 15.40695502  5725
STARLINK-35863          
1 67170U 25303H   26016.25001157  .00013895  00000+0  33933-3 0  9999
2 67170  42.9989 250.2946 0001925 268.5743 164.4087 15.40695497  5975
STARLINK-35771          
1 67171U 25303J   26016.25001157  .00013962  00000+0  34092-3 0  9992
2 67171  42.9986 250.3854 0001564 268.0561 127.6069 15.40696084  5721
