CCSDS_OMM_VERS = 2.0
CREATION_DATE  = 
ORIGINATOR     = 

OBJECT_NAME    = GSAT0233 (GALILEO 33)
OBJECT_ID      = 2025-302A
CENTER_NAME    = EARTH
REF_FRAME      = TEME
TIME_SYSTEM    = UTC
MEAN_ELEMENT_THEORY = SGP/SGP4

EPOCH          = 2025-12-18T03:30:19.486368
MEAN_MOTION    = 1.72906186
ECCENTRICITY   = .00084238
INCLINATION    = 54.2406
RA_OF_ASC_NODE = 107.2544
ARG_OF_PERICENTER = 237.6458
MEAN_ANOMALY   = 122.2317

EPHEMERIS_TYPE = 0
CLASSIFICATION_TYPE = U
NORAD_CAT_ID   = 67160
ELEMENT_SET_NO = 999
REV_AT_EPOCH   = 2
BSTAR          = 0
MEAN_MOTION_DOT = -.7E-7
MEAN_MOTION_DDOT = 0

CCSDS_OMM_VERS = 2.0
CREATION_DATE  = 
ORIGINATOR     = 

OBJECT_NAME    = ARIANE 6 R/B
OBJECT_ID      = 2025-302B
CENTER_NAME    = EARTH
REF_FRAME      = TEME
TIME_SYSTEM    = UTC
MEAN_ELEMENT_THEORY = SGP/SGP4

EPOCH          = 2026-01-14T07:36:28.132992
MEAN_MOTION    = 1.72972424
ECCENTRICITY   = .00052175
INCLINATION    = 54.2437
RA_OF_ASC_NODE = 106.4249
ARG_OF_PERICENTER = 261.0325
MEAN_ANOMALY   = 98.9126

EPHEMERIS_TYPE = 0
CLASSIFICATION_TYPE = U
NORAD_CAT_ID   = 67161
ELEMENT_SET_NO = 999
REV_AT_EPOCH   = 50
BSTAR          = 0
MEAN_MOTION_DOT = -.32E-6
MEAN_MOTION_DDOT = 0

CCSDS_OMM_VERS = 2.0
CREATION_DATE  = 
ORIGINATOR     = 

OBJECT_NAME    = GSAT0234 (GALILEO 34)
OBJECT_ID      = 2025-302C
CENTER_NAME    = EARTH
REF_FRAME      = TEME
TIME_SYSTEM    = UTC
MEAN_ELEMENT_THEORY = SGP/SGP4

EPOCH          = 2025-12-22T04:22:43.605696
MEAN_MOTION    = 1.73130437
ECCENTRICITY   = .0000312
INCLINATION    = 54.2447
RA_OF_ASC_NODE = 107.1379
ARG_OF_PERICENTER = 196.8367
MEAN_ANOMALY   = 159.4994

EPHEMERIS_TYPE = 0
CLASSIFICATION_TYPE = U
NORAD_CAT_ID   = 67162
ELEMENT_SET_NO = 999
REV_AT_EPOCH   = 12
BSTAR          = 0
MEAN_MOTION_DOT = .6E-7
MEAN_MOTION_DDOT = 0

CCSDS_OMM_VERS = 2.0
CREATION_DATE  = 
ORIGINATOR     = 

OBJECT_NAME    = STARLINK-35755
OBJECT_ID      = 2025-303A
CENTER_NAME    = EARTH
REF_FRAME      = TEME
TIME_SYSTEM    = UTC
MEAN_ELEMENT_THEORY = SGP/SGP4

EPOCH          = 2026-01-16T06:00:00.999648
MEAN_MOTION    = 15.40728091
ECCENTRICITY   = .00022693
INCLINATION    = 42.9987
RA_OF_ASC_NODE = 250.5679
ARG_OF_PERICENTER = 260.8348
MEAN_ANOMALY   = 60.0868

EPHEMERIS_TYPE = 0
CLASSIFICATION_TYPE = U
NORAD_CAT_ID   = 67163
ELEMENT_SET_NO = 999
REV_AT_EPOCH   = 572
BSTAR          = .19906328E-3
MEAN_MOTION_DOT = .8028E-4
MEAN_MOTION_DDOT = 0

CCSDS_OMM_VERS = 2.0
CREATION_DATE  = 
ORIGINATOR     = 

OBJECT_NAME    = STARLINK-36201
OBJECT_ID      = 2025-303B
CENTER_NAME    = EARTH
REF_FRAME      = TEME
TIME_SYSTEM    = UTC
MEAN_ELEMENT_THEORY = SGP/SGP4

EPOCH          = 2026-01-16T06:00:00.999648
MEAN_MOTION    = 15.40695530
ECCENTRICITY   = .00013847
INCLINATION    = 42.9988
RA_OF_ASC_NODE = 250.5362
ARG_OF_PERICENTER = 270.8802
MEAN_ANOMALY   = 62.5862

EPHEMERIS_TYPE = 0
CLASSIFICATION_TYPE = U
NORAD_CAT_ID   = 67164
ELEMENT_SET_NO = 999
REV_AT_EPOCH   = 601
BSTAR          = .25774812E-3
MEAN_MOTION_DOT = .10476E-3
MEAN_MOTION_DDOT = 0

CCSDS_OMM_VERS = 2.0
CREATION_DATE  = 
ORIGINATOR     = 

OBJECT_NAME    = STARLINK-36186
OBJECT_ID      = 2025-303C
CENTER_NAME    = EARTH
REF_FRAME      = TEME
TIME_SYSTEM    = UTC
MEAN_ELEMENT_THEORY = SGP/SGP4

EPOCH          = 2026-01-16T06:00:00.999648
MEAN_MOTION    = 15.40697031
ECCENTRICITY   = .0001289
INCLINATION    = 42.9987
RA_OF_ASC_NODE = 250.4452
ARG_OF_PERICENTER = 263.3273
MEAN_ANOMALY   = 107.4523

EPHEMERIS_TYPE = 0
CLASSIFICATION_TYPE = U
NORAD_CAT_ID   = 67165
ELEMENT_SET_NO = 999
REV_AT_EPOCH   = 601
BSTAR          = .27290235E-3
MEAN_MOTION_DOT = .11112E-3
MEAN_MOTION_DDOT = 0

CCSDS_OMM_VERS = 2.0
CREATION_DATE  = 
ORIGINATOR     = 

OBJECT_NAME    = STARLINK-36174
OBJECT_ID      = 2025-303D
CENTER_NAME    = EARTH
REF_FRAME      = TEME
TIME_SYSTEM    = UTC
MEAN_ELEMENT_THEORY = SGP/SGP4

EPOCH          = 2026-01-16T06:00:00.999648
MEAN_MOTION    = 15.40696600
ECCENTRICITY   = .00015089
INCLINATION    = 42.9988
RA_OF_ASC_NODE = 250.5070
ARG_OF_PERICENTER = 265.2730
MEAN_ANOMALY   = 80.6297

EPHEMERIS_TYPE = 0
CLASSIFICATION_TYPE = U
NORAD_CAT_ID   = 67166
ELEMENT_SET_NO = 999
REV_AT_EPOCH   = 584
BSTAR          = .24536853E-3
MEAN_MOTION_DOT = .9958E-4
MEAN_MOTION_DDOT = 0

CCSDS_OMM_VERS = 2.0
CREATION_DATE  = 
ORIGINATOR     = 

OBJECT_NAME    = STARLINK-36198
OBJECT_ID      = 2025-303E
CENTER_NAME    = EARTH
REF_FRAME      = TEME
TIME_SYSTEM    = UTC
MEAN_ELEMENT_THEORY = SGP/SGP4

EPOCH          = 2026-01-16T06:00:00.999648
MEAN_MOTION    = 15.40694787
ECCENTRICITY   = .00015712
INCLINATION    = 42.9987
RA_OF_ASC_NODE = 250.4156
ARG_OF_PERICENTER = 269.4602
MEAN_ANOMALY   = 113.7639

EPHEMERIS_TYPE = 0
CLASSIFICATION_TYPE = U
NORAD_CAT_ID   = 67167
ELEMENT_SET_NO = 999
REV_AT_EPOCH   = 601
BSTAR          = .29934865E-3
MEAN_MOTION_DOT = .12219E-3
MEAN_MOTION_DDOT = 0

CCSDS_OMM_VERS = 2.0
CREATION_DATE  = 
ORIGINATOR     = 

OBJECT_NAME    = STARLINK-35903
OBJECT_ID      = 2025-303F
CENTER_NAME    = EARTH
REF_FRAME      = TEME
TIME_SYSTEM    = UTC
MEAN_ELEMENT_THEORY = SGP/SGP4

EPOCH          = 2026-01-16T06:00:00.999648
MEAN_MOTION    = 15.40695544
ECCENTRICITY   = .00011803
INCLINATION    = 42.9988
RA_OF_ASC_NODE = 250.4756
ARG_OF_PERICENTER = 275.3794
MEAN_ANOMALY   = 82.9694

EPHEMERIS_TYPE = 0
CLASSIFICATION_TYPE = U
NORAD_CAT_ID   = 67168
ELEMENT_SET_NO = 999
REV_AT_EPOCH   = 597
BSTAR          = .29516929E-3
MEAN_MOTION_DOT = .12044E-3
MEAN_MOTION_DDOT = 0

CCSDS_OMM_VERS = 2.0
CREATION_DATE  = 
ORIGINATOR     = 

OBJECT_NAME    = STARLINK-35839
OBJECT_ID      = 2025-303G
CENTER_NAME    = EARTH
REF_FRAME      = TEME
TIME_SYSTEM    = UTC
MEAN_ELEMENT_THEORY = SGP/SGP4

EPOCH          = 2026-01-16T06:00:00.999648
MEAN_MOTION    = 15.40695502
ECCENTRICITY   = .00017887
INCLINATION    = 42.9988
RA_OF_ASC_NODE = 250.3550
ARG_OF_PERICENTER = 269.9971
MEAN_ANOMALY   = 138.1085

EPHEMERIS_TYPE = 0
CLASSIFICATION_TYPE = U
NORAD_CAT_ID   = 67169
ELEMENT_SET_NO = 999
REV_AT_EPOCH   = 572
BSTAR          = .31400828E-3
MEAN_MOTION_DOT = .12833E-3
MEAN_MOTION_DDOT = 0

CCSDS_OMM_VERS = 2.0
CREATION_DATE  = 
ORIGINATOR     = 

OBJECT_NAME    = STARLINK-35863
OBJECT_ID      = 2025-303H
CENTER_NAME    = EARTH
REF_FRAME      = TEME
TIME_SYSTEM    = UTC
MEAN_ELEMENT_THEORY = SGP/SGP4

EPOCH          = 2026-01-16T06:00:00.999648
MEAN_MOTION    = 15.40695497
ECCENTRICITY   = .00019258
INCLINATION    = 42.9989
RA_OF_ASC_NODE = 250.2946
ARG_OF_PERICENTER = 268.5743
MEAN_ANOMALY   = 164.4087

EPHEMERIS_TYPE = 0
CLASSIFICATION_TYPE = U
NORAD_CAT_ID   = 67170
ELEMENT_SET_NO = 999
REV_AT_EPOCH   = 597
BSTAR          = .33933216E-3
MEAN_MOTION_DOT = .13895E-3
MEAN_MOTION_DDOT = 0

CCSDS_OMM_VERS = 2.0
CREATION_DATE  = 
ORIGINATOR     = 

OBJECT_NAME    = STARLINK-35771
OBJECT_ID      = 2025-303J
CENTER_NAME    = EARTH
REF_FRAME      = TEME
TIME_SYSTEM    = UTC
MEAN_ELEMENT_THEORY = SGP/SGP4

EPOCH          = 2026-01-16T06:00:00.999648
MEAN_MOTION    = 15.40696084
ECCENTRICITY   = .0001564
INCLINATION    = 42.9986
RA_OF_ASC_NODE = 250.3854
ARG_OF_PERICENTER = 268.0561
MEAN_ANOMALY   = 127.6069

EPHEMERIS_TYPE = 0
CLASSIFICATION_TYPE = U
NORAD_CAT_ID   = 67171
ELEMENT_SET_NO = 999
REV_AT_EPOCH   = 572
BSTAR          = .34092015E-3
MEAN_MOTION_DOT = .13962E-3
MEAN_MOTION_DDOT = 0

